{"type": "FeatureCollection", "features": [ {"type": "Feature", "properties": {"norad_id": 36280, "name": "FENGYUN 1C DEB", "group": "fengyun-1c-debris", "lat": -74.0671259086777, "lon": 62.8005225736179, "alt_km": 875.3022706963502, "timestamp": "2025-12-27T11:23:20.185935+00:00", "meta": {"OBJECT_NAME": "FENGYUN 1C DEB", "OBJECT_ID": "1999-025DXH", "EPOCH": "2025-12-24T22:59:16.157760", "MEAN_MOTION": 14.09776084, "ECCENTRICITY": 0.00626128, "INCLINATION": 98.7659, "RA_OF_ASC_NODE": 27.633, "ARG_OF_PERICENTER": 30.8932, "MEAN_ANOMALY": 87.4685, "EPHEMERIS_TYPE": 0, "CLASSIFICATION_TYPE": "U", "NORAD_CAT_ID": 36280, "ELEMENT_SET_NO": 999, "REV_AT_EPOCH": 86526, "BSTAR": 0.00090348933, "MEAN_MOTION_DOT": 1.574e-05, "MEAN_MOTION_DDOT": 0}, "tle": {"line1": "1 36280U 99025DXH 25358.95782590  .00001574  00000+0  90349-3 0  9996", "line2": "2 36280  98.7659  27.6330 0062612  30.8932  87.4685 14.09776084865269"}}, "geometry": {"type": "Point", "coordinates": [62.8005225736179, -74.0671259086777]}}, {"type": "Feature", "properties": {"norad_id": 36281, "name": "FENGYUN 1C DEB", "group": "fengyun-1c-debris", "lat": 51.453679478325654, "lon": 114.46344804082395, "alt_km": 899.8076618319164, "timestamp": "2025-12-27T11:23:20.185945+00:00", "meta": {"OBJECT_NAME": "FENGYUN 1C DEB", "OBJECT_ID": "1999-025DXJ", "EPOCH": "2025-12-26T13:36:40.014720", "MEAN_MOTION": 13.60344701, "ECCENTRICITY": 0.029262, "INCLINATION": 99.2589, "RA_OF_ASC_NODE": 281.79, "ARG_OF_PERICENTER": 75.2289, "MEAN_ANOMALY": 288.108, "EPHEMERIS_TYPE": 0, "CLASSIFICATION_TYPE": "U", "NORAD_CAT_ID": 36281, "ELEMENT_SET_NO": 999, "REV_AT_EPOCH": 84705, "BSTAR": 0.0039892, "MEAN_MOTION_DOT": 3.935e-05, "MEAN_MOTION_DDOT": 0}, "tle": {"line1": "1 36281U 99025DXJ 25360.56712980  .00003935  00000+0  39892-2 0  9991", "line2": "2 36281  99.2589 281.7900 0292620  75.2289 288.1080 13.60344701847055"}}, "geometry": {"type": "Point", "coordinates": [114.46344804082395, 51.453679478325654]}}, {"type": "Feature", "properties": {"norad_id": 36283, "name": "FENGYUN 1C DEB", "group": "fengyun-1c-debris", "lat": 29.782459786979654, "lon": 155.28761369533763, "alt_km": 580.7445783546091, "timestamp": "2025-12-27T11:23:20.185955+00:00", "meta": {"OBJECT_NAME": "FENGYUN 1C DEB", "OBJECT_ID": "1999-025DXL", "EPOCH": "2025-12-26T15:36:31.008096", "MEAN_MOTION": 15.07090772, "ECCENTRICITY": 0.00655595, "INCLINATION": 99.4228, "RA_OF_ASC_NODE": 328.8263, "ARG_OF_PERICENTER": 6.7735, "MEAN_ANOMALY": 353.4357, "EPHEMERIS_TYPE": 0, "CLASSIFICATION_TYPE": "U", "NORAD_CAT_ID": 36283, "ELEMENT_SET_NO": 999, "REV_AT_EPOCH": 66875, "BSTAR": 0.0022988474, "MEAN_MOTION_DOT": 0.00036316, "MEAN_MOTION_DDOT": 0}, "tle": {"line1": "1 36283U 99025DXL 25360.65035889  .00036316  00000+0  22988-2 0  9996", "line2": "2 36283  99.4228 328.8263 0065559   6.7735 353.4357 15.07090772668758"}}, "geometry": {"type": "Point", "coordinates": [155.28761369533763, 29.782459786979654]}}, {"type": "Feature", "properties": {"norad_id": 36644, "name": "FENGYUN 1C DEB", "group": "fengyun-1c-debris", "lat": -73.7120493475, "lon": -72.44074254450744, "alt_km": 1129.4915494653906, "timestamp": "2025-12-27T11:23:20.185965+00:00", "meta": {"OBJECT_NAME": "FENGYUN 1C DEB", "OBJECT_ID": "1999-025DXN", "EPOCH": "2025-12-20T03:15:14.582880", "MEAN_MOTION": 13.5921712, "ECCENTRICITY": 0.0285778, "INCLINATION": 98.4233, "RA_OF_ASC_NODE": 131.7114, "ARG_OF_PERICENTER": 160.4918, "MEAN_ANOMALY": 200.7431, "EPHEMERIS_TYPE": 0, "CLASSIFICATION_TYPE": "U", "NORAD_CAT_ID": 36644, "ELEMENT_SET_NO": 999, "REV_AT_EPOCH": 61668, "BSTAR": 0.0010197403, "MEAN_MOTION_DOT": 9.49e-06, "MEAN_MOTION_DDOT": 0}, "tle": {"line1": "1 36644U 99025DXN 25354.13558545  .00000949  00000+0  10197-2 0  9994", "line2": "2 36644  98.4233 131.7114 0285778 160.4918 200.7431 13.59217120616683"}}, "geometry": {"type": "Point", "coordinates": [-72.44074254450744, -73.7120493475]}}, {"type": "Feature", "properties": {"norad_id": 36647, "name": "FENGYUN 1C DEB", "group": "fengyun-1c-debris", "lat": 2.48336475826731, "lon": -42.601062701690886, "alt_km": 898.9545642374442, "timestamp": "2025-12-27T11:23:20.185975+00:00", "meta": {"OBJECT_NAME": "FENGYUN 1C DEB", "OBJECT_ID": "1999-025DXR", "EPOCH": "2025-12-17T15:22:01.202880", "MEAN_MOTION": 13.88856712, "ECCENTRICITY": 0.02401846, "INCLINATION": 96.1202, "RA_OF_ASC_NODE": 130.6548, "ARG_OF_PERICENTER": 285.5466, "MEAN_ANOMALY": 71.9303, "EPHEMERIS_TYPE": 0, "CLASSIFICATION_TYPE": "U", "NORAD_CAT_ID": 36647, "ELEMENT_SET_NO": 999, "REV_AT_EPOCH": 30480, "BSTAR": 0.0022455743, "MEAN_MOTION_DOT": 3.394e-05, "MEAN_MOTION_DDOT": 0}, "tle": {"line1": "1 36647U 99025DXR 25351.64029170  .00003394  00000+0  22456-2 0  9995", "line2": "2 36647  96.1202 130.6548 0240184 285.5466  71.9303 13.88856712304807"}}, "geometry": {"type": "Point", "coordinates": [-42.601062701690886, 2.48336475826731]}}, {"type": "Feature", "properties": {"norad_id": 36652, "name": "FENGYUN 1C DEB", "group": "fengyun-1c-debris", "lat": -3.828158421435171, "lon": 84.47065035506488, "alt_km": 793.658177747714, "timestamp": "2025-12-27T11:23:20.185985+00:00", "meta": {"OBJECT_NAME": "FENGYUN 1C DEB", "OBJECT_ID": "1999-025DXW", "EPOCH": "2025-12-26T23:35:37.370688", "MEAN_MOTION": 14.22920695, "ECCENTRICITY": 0.0051125, "INCLINATION": 98.9402, "RA_OF_ASC_NODE": 83.3684, "ARG_OF_PERICENTER": 310.7186, "MEAN_ANOMALY": 48.9557, "EPHEMERIS_TYPE": 0, "CLASSIFICATION_TYPE": "U", "NORAD_CAT_ID": 36652, "ELEMENT_SET_NO": 999, "REV_AT_EPOCH": 64527, "BSTAR": 0.0019853, "MEAN_MOTION_DOT": 4.481e-05, "MEAN_MOTION_DDOT": 0}, "tle": {"line1": "1 36652U 99025DXW 25360.98307142  .00004481  00000+0  19853-2 0  9991", "line2": "2 36652  98.9402  83.3684 0051125 310.7186  48.9557 14.22920695645270"}}, "geometry": {"type": "Point", "coordinates": [84.47065035506488, -3.828158421435171]}}, {"type": "Feature", "properties": {"norad_id": 36657, "name": "FENGYUN 1C DEB", "group": "fengyun-1c-debris", "lat": -76.94082825713801, "lon": -159.8185591910315, "alt_km": 698.8017015797677, "timestamp": "2025-12-27T11:23:20.185995+00:00", "meta": {"OBJECT_NAME": "FENGYUN 1C DEB", "OBJECT_ID": "1999-025DYB", "EPOCH": "2025-12-24T16:34:37.790688", "MEAN_MOTION": 14.65600132, "ECCENTRICITY": 0.01054242, "INCLINATION": 99.4135, "RA_OF_ASC_NODE": 151.3338, "ARG_OF_PERICENTER": 30.9032, "MEAN_ANOMALY": 329.8315, "EPHEMERIS_TYPE": 0, "CLASSIFICATION_TYPE": "U", "NORAD_CAT_ID": 36657, "ELEMENT_SET_NO": 999, "REV_AT_EPOCH": 66431, "BSTAR": 0.000583973, "MEAN_MOTION_DOT": 3.376e-05, "MEAN_MOTION_DDOT": 0}, "tle": {"line1": "1 36657U 99025DYB 25358.69071517  .00003376  00000+0  58397-3 0  9994", "line2": "2 36657  99.4135 151.3338 0105424  30.9032 329.8315 14.65600132664316"}}, "geometry": {"type": "Point", "coordinates": [-159.8185591910315, -76.94082825713801]}}, {"type": "Feature", "properties": {"norad_id": 36659, "name": "FENGYUN 1C DEB", "group": "fengyun-1c-debris", "lat": 79.93931894172152, "lon": -95.82449399994474, "alt_km": 873.6245471073644, "timestamp": "2025-12-27T11:23:20.186005+00:00", "meta": {"OBJECT_NAME": "FENGYUN 1C DEB", "OBJECT_ID": "1999-025DYD", "EPOCH": "2025-12-18T07:09:04.054176", "MEAN_MOTION": 13.87384482, "ECCENTRICITY": 0.01357919, "INCLINATION": 99.8541, "RA_OF_ASC_NODE": 356.081, "ARG_OF_PERICENTER": 60.2917, "MEAN_ANOMALY": 301.1674, "EPHEMERIS_TYPE": 0, "CLASSIFICATION_TYPE": "U", "NORAD_CAT_ID": 36659, "ELEMENT_SET_NO": 999, "REV_AT_EPOCH": 60502, "BSTAR": 0.00061832075, "MEAN_MOTION_DOT": 7.35e-06, "MEAN_MOTION_DDOT": 0}, "tle": {"line1": "1 36659U 99025DYD 25352.29796359  .00000735  00000+0  61832-3 0  9998", "line2": "2 36659  99.8541 356.0810 0135791  60.2917 301.1674 13.87384482605024"}}, "geometry": {"type": "Point", "coordinates": [-95.82449399994474, 79.93931894172152]}}, {"type": "Feature", "properties": {"norad_id": 36664, "name": "FENGYUN 1C DEB", "group": "fengyun-1c-debris", "lat": -16.89805736888051, "lon": -157.00557355827618, "alt_km": 931.2248486113358, "timestamp": "2025-12-27T11:23:20.186015+00:00", "meta": {"OBJECT_NAME": "FENGYUN 1C DEB", "OBJECT_ID": "1999-025DYJ", "EPOCH": "2025-12-26T20:55:43.506912", "MEAN_MOTION": 14.17963204, "ECCENTRICITY": 0.0173377, "INCLINATION": 98.6032, "RA_OF_ASC_NODE": 25.0463, "ARG_OF_PERICENTER": 59.2235, "MEAN_ANOMALY": 302.5882, "EPHEMERIS_TYPE": 0, "CLASSIFICATION_TYPE": "U", "NORAD_CAT_ID": 36664, "ELEMENT_SET_NO": 999, "REV_AT_EPOCH": 63951, "BSTAR": 0.0001062, "MEAN_MOTION_DOT": 2.1e-06, "MEAN_MOTION_DDOT": 0}, "tle": {"line1": "1 36664U 99025DYJ 25360.87203133  .00000210  00000+0  10620-3 0  9997", "line2": "2 36664  98.6032  25.0463 0173377  59.2235 302.5882 14.17963204639518"}}, "geometry": {"type": "Point", "coordinates": [-157.00557355827618, -16.89805736888051]}}, {"type": "Feature", "properties": {"norad_id": 36668, "name": "FENGYUN 1C DEB", "group": "fengyun-1c-debris", "lat": 47.08342552164048, "lon": 1.9663346130888582, "alt_km": 863.2698161996132, "timestamp": "2025-12-27T11:23:20.186025+00:00", "meta": {"OBJECT_NAME": "FENGYUN 1C DEB", "OBJECT_ID": "1999-025DYN", "EPOCH": "2025-12-25T06:34:05.412864", "MEAN_MOTION": 14.15422045, "ECCENTRICITY": 0.0051464, "INCLINATION": 98.6094, "RA_OF_ASC_NODE": 9.2188, "ARG_OF_PERICENTER": 190.1122, "MEAN_ANOMALY": 169.9022, "EPHEMERIS_TYPE": 0, "CLASSIFICATION_TYPE": "U", "NORAD_CAT_ID": 36668, "ELEMENT_SET_NO": 999, "REV_AT_EPOCH": 57595, "BSTAR": 0.00055657, "MEAN_MOTION_DOT": 1.058e-05, "MEAN_MOTION_DDOT": 0}, "tle": {"line1": "1 36668U 99025DYN 25359.27367376  .00001058  00000+0  55657-3 0  9993", "line2": "2 36668  98.6094   9.2188 0051464 190.1122 169.9022 14.15422045575959"}}, "geometry": {"type": "Point", "coordinates": [1.9663346130888582, 47.08342552164048]}}]}